<?xml version="1.0" encoding="UTF-8"?>
<ndm xmlns:xsi="http://www.w3.org/2001/XMLSchema-instance" xsi:noNamespaceSchemaLocation="https://sanaregistry.org/r/ndmxml_unqualified/ndmxml-2.0.0-master-2.0.xsd">
<omm id="CCSDS_OMM_VERS" version="2.0">
<header><CREATION_DATE/><ORIGINATOR/></header><body><segment><metadata><OBJECT_NAME>COSMOS 2058</OBJECT_NAME><OBJECT_ID>1990-010A</OBJECT_ID><CENTER_NAME>EARTH</CENTER_NAME><REF_FRAME>TEME</REF_FRAME><TIME_SYSTEM>UTC</TIME_SYSTEM><MEAN_ELEMENT_THEORY>SGP4</MEAN_ELEMENT_THEORY></metadata><data><meanElements><EPOCH>2023-02-03T13:01:04.677600</EPOCH><MEAN_MOTION>14.99666232</MEAN_MOTION><ECCENTRICITY>.0014626</ECCENTRICITY><INCLINATION>82.4860</INCLINATION><RA_OF_ASC_NODE>67.8010</RA_OF_ASC_NODE><ARG_OF_PERICENTER>192.5462</ARG_OF_PERICENTER><MEAN_ANOMALY>167.5400</MEAN_ANOMALY></meanElements><tleParameters><EPHEMERIS_TYPE>0</EPHEMERIS_TYPE><CLASSIFICATION_TYPE>U</CLASSIFICATION_TYPE><NORAD_CAT_ID>20465</NORAD_CAT_ID><ELEMENT_SET_NO>999</ELEMENT_SET_NO><REV_AT_EPOCH>79336</REV_AT_EPOCH><BSTAR>.13849E-3</BSTAR><MEAN_MOTION_DOT>.1737E-4</MEAN_MOTION_DOT><MEAN_MOTION_DDOT>0</MEAN_MOTION_DDOT></tleParameters></data></segment></body></omm>
<omm id="CCSDS_OMM_VERS" version="2.0">
<header><CREATION_DATE/><ORIGINATOR/></header><body><segment><metadata><OBJECT_NAME>SL-14 R/B</OBJECT_NAME><OBJECT_ID>1990-010B</OBJECT_ID><CENTER_NAME>EARTH</CENTER_NAME><REF_FRAME>TEME</REF_FRAME><TIME_SYSTEM>UTC</TIME_SYSTEM><MEAN_ELEMENT_THEORY>SGP4</MEAN_ELEMENT_THEORY></metadata><data><meanElements><EPOCH>2023-02-03T17:31:50.898144</EPOCH><MEAN_MOTION>14.81713279</MEAN_MOTION><ECCENTRICITY>.0021758</ECCENTRICITY><INCLINATION>82.5007</INCLINATION><RA_OF_ASC_NODE>247.0208</RA_OF_ASC_NODE><ARG_OF_PERICENTER>61.1477</ARG_OF_PERICENTER><MEAN_ANOMALY>299.1917</MEAN_ANOMALY></meanElements><tleParameters><EPHEMERIS_TYPE>0</EPHEMERIS_TYPE><CLASSIFICATION_TYPE>U</CLASSIFICATION_TYPE><NORAD_CAT_ID>20466</NORAD_CAT_ID><ELEMENT_SET_NO>999</ELEMENT_SET_NO><REV_AT_EPOCH>76105</REV_AT_EPOCH><BSTAR>.48834E-4</BSTAR><MEAN_MOTION_DOT>.41E-5</MEAN_MOTION_DOT><MEAN_MOTION_DDOT>0</MEAN_MOTION_DDOT></tleParameters></data></segment></body></omm>
<omm id="CCSDS_OMM_VERS" version="2.0">
<header><CREATION_DATE/><ORIGINATOR/></header><body><segment><metadata><OBJECT_NAME>SL-14 R/B</OBJECT_NAME><OBJECT_ID>1990-018B</OBJECT_ID><CENTER_NAME>EARTH</CENTER_NAME><REF_FRAME>TEME</REF_FRAME><TIME_SYSTEM>UTC</TIME_SYSTEM><MEAN_ELEMENT_THEORY>SGP4</MEAN_ELEMENT_THEORY></metadata><data><meanElements><EPOCH>2023-02-04T04:55:08.850720</EPOCH><MEAN_MOTION>14.80359531</MEAN_MOTION><ECCENTRICITY>.0016826</ECCENTRICITY><INCLINATION>82.5228</INCLINATION><RA_OF_ASC_NODE>197.2637</RA_OF_ASC_NODE><ARG_OF_PERICENTER>198.8846</ARG_OF_PERICENTER><MEAN_ANOMALY>335.0400</MEAN_ANOMALY></meanElements><tleParameters><EPHEMERIS_TYPE>0</EPHEMERIS_TYPE><CLASSIFICATION_TYPE>U</CLASSIFICATION_TYPE><NORAD_CAT_ID>20511</NORAD_CAT_ID><ELEMENT_SET_NO>999</ELEMENT_SET_NO><REV_AT_EPOCH>77647</REV_AT_EPOCH><BSTAR>.734E-4</BSTAR><MEAN_MOTION_DOT>.584E-5</MEAN_MOTION_DOT><MEAN_MOTION_DDOT>0</MEAN_MOTION_DDOT></tleParameters></data></segment></body></omm>
<omm id="CCSDS_OMM_VERS" version="2.0">
<header><CREATION_DATE/><ORIGINATOR/></header><body><segment><metadata><OBJECT_NAME>HST</OBJECT_NAME><OBJECT_ID>1990-037B</OBJECT_ID><CENTER_NAME>EARTH</CENTER_NAME><REF_FRAME>TEME</REF_FRAME><TIME_SYSTEM>UTC</TIME_SYSTEM><MEAN_ELEMENT_THEORY>SGP4</MEAN_ELEMENT_THEORY></metadata><data><meanElements><EPOCH>2023-02-03T12:55:03.999936</EPOCH><MEAN_MOTION>15.11825928</MEAN_MOTION><ECCENTRICITY>.0002291</ECCENTRICITY><INCLINATION>28.4709</INCLINATION><RA_OF_ASC_NODE>76.4038</RA_OF_ASC_NODE><ARG_OF_PERICENTER>23.4999</ARG_OF_PERICENTER><MEAN_ANOMALY>128.2028</MEAN_ANOMALY></meanElements><tleParameters><EPHEMERIS_TYPE>0</EPHEMERIS_TYPE><CLASSIFICATION_TYPE>U</CLASSIFICATION_TYPE><NORAD_CAT_ID>20580</NORAD_CAT_ID><ELEMENT_SET_NO>999</ELEMENT_SET_NO><REV_AT_EPOCH>60120</REV_AT_EPOCH><BSTAR>.20885E-3</BSTAR><MEAN_MOTION_DOT>.3846E-4</MEAN_MOTION_DOT><MEAN_MOTION_DDOT>0</MEAN_MOTION_DDOT></tleParameters></data></segment></body></omm>
<omm id="CCSDS_OMM_VERS" version="2.0">
<header><CREATION_DATE/><ORIGINATOR/></header><body><segment><metadata><OBJECT_NAME>COSMOS 2084</OBJECT_NAME><OBJECT_ID>1990-055A</OBJECT_ID><CENTER_NAME>EARTH</CENTER_NAME><REF_FRAME>TEME</REF_FRAME><TIME_SYSTEM>UTC</TIME_SYSTEM><MEAN_ELEMENT_THEORY>SGP4</MEAN_ELEMENT_THEORY></metadata><data><meanElements><EPOCH>2023-02-04T03:16:49.496736</EPOCH><MEAN_MOTION>14.93946469</MEAN_MOTION><ECCENTRICITY>.0132083</ECCENTRICITY><INCLINATION>62.7903</INCLINATION><RA_OF_ASC_NODE>194.4125</RA_OF_ASC_NODE><ARG_OF_PERICENTER>73.1148</ARG_OF_PERICENTER><MEAN_ANOMALY>288.4381</MEAN_ANOMALY></meanElements><tleParameters><EPHEMERIS_TYPE>0</EPHEMERIS_TYPE><CLASSIFICATION_TYPE>U</CLASSIFICATION_TYPE><NORAD_CAT_ID>20663</NORAD_CAT_ID><ELEMENT_SET_NO>999</ELEMENT_SET_NO><REV_AT_EPOCH>76690</REV_AT_EPOCH><BSTAR>.25047E-3</BSTAR><MEAN_MOTION_DOT>.2967E-4</MEAN_MOTION_DOT><MEAN_MOTION_DDOT>0</MEAN_MOTION_DDOT></tleParameters></data></segment></body></omm>
<omm id="CCSDS_OMM_VERS" version="2.0">
<header><CREATION_DATE/><ORIGINATOR/></header><body><segment><metadata><OBJECT_NAME>SL-6 R/B(2)</OBJECT_NAME><OBJECT_ID>1990-055D</OBJECT_ID><CENTER_NAME>EARTH</CENTER_NAME><REF_FRAME>TEME</REF_FRAME><TIME_SYSTEM>UTC</TIME_SYSTEM><MEAN_ELEMENT_THEORY>SGP4</MEAN_ELEMENT_THEORY></metadata><data><meanElements><EPOCH>2023-02-03T14:42:09.129888</EPOCH><MEAN_MOTION>14.94164444</MEAN_MOTION><ECCENTRICITY>.0131407</ECCENTRICITY><INCLINATION>62.7842</INCLINATION><RA_OF_ASC_NODE>110.0678</RA_OF_ASC_NODE><ARG_OF_PERICENTER>94.6563</ARG_OF_PERICENTER><MEAN_ANOMALY>266.9554</MEAN_ANOMALY></meanElements><tleParameters><EPHEMERIS_TYPE>0</EPHEMERIS_TYPE><CLASSIFICATION_TYPE>U</CLASSIFICATION_TYPE><NORAD_CAT_ID>20666</NORAD_CAT_ID><ELEMENT_SET_NO>999</ELEMENT_SET_NO><REV_AT_EPOCH>76878</REV_AT_EPOCH><BSTAR>.15464E-3</BSTAR><MEAN_MOTION_DOT>.1754E-4</MEAN_MOTION_DOT><MEAN_MOTION_DDOT>0</MEAN_MOTION_DDOT></tleParameters></data></segment></body></omm>
<omm id="CCSDS_OMM_VERS" version="2.0">
<header><CREATION_DATE/><ORIGINATOR/></header><body><segment><metadata><OBJECT_NAME>SL-8 R/B</OBJECT_NAME><OBJECT_ID>1990-078B</OBJECT_ID><CENTER_NAME>EARTH</CENTER_NAME><REF_FRAME>TEME</REF_FRAME><TIME_SYSTEM>UTC</TIME_SYSTEM><MEAN_ELEMENT_THEORY>SGP4</MEAN_ELEMENT_THEORY></metadata><data><meanElements><EPOCH>2023-02-03T18:34:23.657952</EPOCH><MEAN_MOTION>14.44816285</MEAN_MOTION><ECCENTRICITY>.0532775</ECCENTRICITY><INCLINATION>82.9248</INCLINATION><RA_OF_ASC_NODE>149.9107</RA_OF_ASC_NODE><ARG_OF_PERICENTER>82.2302</ARG_OF_PERICENTER><MEAN_ANOMALY>283.9019</MEAN_ANOMALY></meanElements><tleParameters><EPHEMERIS_TYPE>0</EPHEMERIS_TYPE><CLASSIFICATION_TYPE>U</CLASSIFICATION_TYPE><NORAD_CAT_ID>20775</NORAD_CAT_ID><ELEMENT_SET_NO>999</ELEMENT_SET_NO><REV_AT_EPOCH>64385</REV_AT_EPOCH><BSTAR>.36517E-3</BSTAR><MEAN_MOTION_DOT>.8173E-4</MEAN_MOTION_DOT><MEAN_MOTION_DDOT>0</MEAN_MOTION_DDOT></tleParameters></data></segment></body></omm>

</ndm>
