HST                     
1 20580U 90037B   23034.53824074  .00003846  00000+0  20885-3 0  9995
2 20580  28.4709  76.4038 0002291  23.4999 128.2028 15.11825928601209
COSMOS 2058             
1 20465U 90010A   23034.54241525  .00001737  00000+0  13849-3 0  9992
2 20465  82.4860  67.8010 0014626 192.5462 167.5400 14.99666232793366
SL-14 R/B               
1 20466U 90010B   23034.73045021  .00000410  00000+0  48834-4 0  9997
2 20466  82.5007 247.0208 0021758  61.1477 299.1917 14.81713279761054
SL-14 R/B               
1 20511U 90018B   23035.20496355  .00000584  00000+0  73400-4 0  9998
2 20511  82.5228 197.2637 0016826 198.8846 335.0400 14.80359531776475
COSMOS 2084             
1 20663U 90055A   23035.13668399  .00002967  00000+0  25047-3 0  9998
2 20663  62.7903 194.4125 0132083  73.1148 288.4381 14.93946469766900
SL-6 R/B(2)             
1 20666U 90055D   23034.61260567  .00001754  00000+0  15464-3 0  9993
2 20666  62.7842 110.0678 0131407  94.6563 266.9554 14.94164444768787
SL-8 R/B                
1 20775U 90078B   23034.77388493  .00008173  00000+0  36517-3 0  9999
2 20775  82.9248 149.9107 0532775  82.2302 283.9019 14.44816285643854
